[
  {
    "OBJECT_NAME": "SUPERVIEW NEO-2 OBJECT A",
    "OBJECT_ID": "2026-062A",
    "EPOCH": "2026-04-20T03:24:37.609344",
    "MEAN_MOTION": 15.19719041,
    "ECCENTRICITY": 0.0001638,
    "INCLINATION": 97.4407,
    "RA_OF_ASC_NODE": 118.2769,
    "ARG_OF_PERICENTER": 81.9117,
    "MEAN_ANOMALY": 278.2304,
    "EPHEMERIS_TYPE": 0,
    "CLASSIFICATION_TYPE": "U",
    "NORAD_CAT_ID": 68377,
    "ELEMENT_SET_NO": 999,
    "REV_AT_EPOCH": 383,
    "BSTAR": 9.4982e-05,
    "MEAN_MOTION_DOT": 1.961e-05,
    "MEAN_MOTION_DDOT": 0
  },
  {
    "OBJECT_NAME": "SUPERVIEW NEO-2 OBJECT B",
    "OBJECT_ID": "2026-062B",
    "EPOCH": "2026-04-18T07:09:48.798144",
    "MEAN_MOTION": 15.1972553,
    "ECCENTRICITY": 0.00017216,
    "INCLINATION": 97.4403,
    "RA_OF_ASC_NODE": 116.4568,
    "ARG_OF_PERICENTER": 86.646,
    "MEAN_ANOMALY": 273.4972,
    "EPHEMERIS_TYPE": 0,
    "CLASSIFICATION_TYPE": "U",
    "NORAD_CAT_ID": 68378,
    "ELEMENT_SET_NO": 999,
    "REV_AT_EPOCH": 355,
    "BSTAR": 8.7682515e-05,
    "MEAN_MOTION_DOT": 1.805e-05,
    "MEAN_MOTION_DDOT": 0
  },
  {
    "OBJECT_NAME": "CZ-2D R/B",
    "OBJECT_ID": "2026-062C",
    "EPOCH": "2026-04-20T05:16:42.386592",
    "MEAN_MOTION": 15.31476756,
    "ECCENTRICITY": 0.0050444,
    "INCLINATION": 97.4972,
    "RA_OF_ASC_NODE": 118.7795,
    "ARG_OF_PERICENTER": 332.5136,
    "MEAN_ANOMALY": 27.3438,
    "EPHEMERIS_TYPE": 0,
    "CLASSIFICATION_TYPE": "U",
    "NORAD_CAT_ID": 68379,
    "ELEMENT_SET_NO": 999,
    "REV_AT_EPOCH": 387,
    "BSTAR": 0.00024949,
    "MEAN_MOTION_DOT": 7.806e-05,
    "MEAN_MOTION_DDOT": 0
  },
  {
    "OBJECT_NAME": "STARLINK-36296",
    "OBJECT_ID": "2026-063A",
    "EPOCH": "2026-04-19T00:00:02.000160",
    "MEAN_MOTION": 15.75197508,
    "ECCENTRICITY": 0.00012271,
    "INCLINATION": 97.2859,
    "RA_OF_ASC_NODE": 250.9333,
    "ARG_OF_PERICENTER": 92.7806,
    "MEAN_ANOMALY": 46.0139,
    "EPHEMERIS_TYPE": 0,
    "CLASSIFICATION_TYPE": "U",
    "NORAD_CAT_ID": 68380,
    "ELEMENT_SET_NO": 999,
    "REV_AT_EPOCH": 213,
    "BSTAR": -0.00086934001,
    "MEAN_MOTION_DOT": -0.00127916,
    "MEAN_MOTION_DDOT": 0
  },
  {
    "OBJECT_NAME": "STARLINK-37111",
    "OBJECT_ID": "2026-063B",
    "EPOCH": "2026-04-20T00:00:02.998944",
    "MEAN_MOTION": 15.75173247,
    "ECCENTRICITY": 0.0001263,
    "INCLINATION": 97.2866,
    "RA_OF_ASC_NODE": 251.816,
    "ARG_OF_PERICENTER": 79.0667,
    "MEAN_ANOMALY": 306.5727,
    "EPHEMERIS_TYPE": 0,
    "CLASSIFICATION_TYPE": "U",
    "NORAD_CAT_ID": 68381,
    "ELEMENT_SET_NO": 999,
    "REV_AT_EPOCH": 510,
    "BSTAR": 0.00020537,
    "MEAN_MOTION_DOT": 0.00030589,
    "MEAN_MOTION_DDOT": 0
  },
  {
    "OBJECT_NAME": "STARLINK-36946",
    "OBJECT_ID": "2026-063C",
    "EPOCH": "2026-04-17T22:54:32.406336",
    "MEAN_MOTION": 15.8086769,
    "ECCENTRICITY": 0.00014348,
    "INCLINATION": 97.285,
    "RA_OF_ASC_NODE": 249.6875,
    "ARG_OF_PERICENTER": 75.175,
    "MEAN_ANOMALY": 284.9677,
    "EPHEMERIS_TYPE": 0,
    "CLASSIFICATION_TYPE": "U",
    "NORAD_CAT_ID": 68382,
    "ELEMENT_SET_NO": 999,
    "REV_AT_EPOCH": 382,
    "BSTAR": 0.00082248224,
    "MEAN_MOTION_DOT": 0.00160717,
    "MEAN_MOTION_DDOT": 0
  },
  {
    "OBJECT_NAME": "STARLINK-37121",
    "OBJECT_ID": "2026-063D",
    "EPOCH": "2026-04-18T00:00:04.000320",
    "MEAN_MOTION": 15.75252071,
    "ECCENTRICITY": 0.00012635,
    "INCLINATION": 97.2858,
    "RA_OF_ASC_NODE": 249.7065,
    "ARG_OF_PERICENTER": 84.1834,
    "MEAN_ANOMALY": 103.8642,
    "EPHEMERIS_TYPE": 0,
    "CLASSIFICATION_TYPE": "U",
    "NORAD_CAT_ID": 68383,
    "ELEMENT_SET_NO": 999,
    "REV_AT_EPOCH": 478,
    "BSTAR": -0.0011266034,
    "MEAN_MOTION_DOT": -0.00165403,
    "MEAN_MOTION_DDOT": 0
  },
  {
    "OBJECT_NAME": "STARLINK-37137",
    "OBJECT_ID": "2026-063E",
    "EPOCH": "2026-04-17T22:09:47.942784",
    "MEAN_MOTION": 15.75220922,
    "ECCENTRICITY": 0.00014596,
    "INCLINATION": 97.2845,
    "RA_OF_ASC_NODE": 249.5766,
    "ARG_OF_PERICENTER": 82.933,
    "MEAN_ANOMALY": 277.2101,
    "EPHEMERIS_TYPE": 0,
    "CLASSIFICATION_TYPE": "U",
    "NORAD_CAT_ID": 68384,
    "ELEMENT_SET_NO": 999,
    "REV_AT_EPOCH": 381,
    "BSTAR": 0.00072056825,
    "MEAN_MOTION_DOT": 0.00108874,
    "MEAN_MOTION_DDOT": 0
  },
  {
    "OBJECT_NAME": "STARLINK-37128",
    "OBJECT_ID": "2026-063F",
    "EPOCH": "2026-04-17T22:51:17.940672",
    "MEAN_MOTION": 15.80862037,
    "ECCENTRICITY": 0.00024941,
    "INCLINATION": 97.2851,
    "RA_OF_ASC_NODE": 249.6918,
    "ARG_OF_PERICENTER": 45.8986,
    "MEAN_ANOMALY": 314.2487,
    "EPHEMERIS_TYPE": 0,
    "CLASSIFICATION_TYPE": "U",
    "NORAD_CAT_ID": 68385,
    "ELEMENT_SET_NO": 999,
    "REV_AT_EPOCH": 382,
    "BSTAR": 0.00086479818,
    "MEAN_MOTION_DOT": 0.00169127,
    "MEAN_MOTION_DDOT": 0
  },
  {
    "OBJECT_NAME": "STARLINK-37198",
    "OBJECT_ID": "2026-063G",
    "EPOCH": "2026-04-17T21:46:55.960896",
    "MEAN_MOTION": 15.75212949,
    "ECCENTRICITY": 0.00015391,
    "INCLINATION": 97.2847,
    "RA_OF_ASC_NODE": 249.5988,
    "ARG_OF_PERICENTER": 79.1313,
    "MEAN_ANOMALY": 281.0126,
    "EPHEMERIS_TYPE": 0,
    "CLASSIFICATION_TYPE": "U",
    "NORAD_CAT_ID": 68386,
    "ELEMENT_SET_NO": 999,
    "REV_AT_EPOCH": 381,
    "BSTAR": 0.00063104586,
    "MEAN_MOTION_DOT": 0.00095145,
    "MEAN_MOTION_DDOT": 0
  },
  {
    "OBJECT_NAME": "STARLINK-37223",
    "OBJECT_ID": "2026-063H",
    "EPOCH": "2026-04-18T12:29:29.993856",
    "MEAN_MOTION": 15.80971624,
    "ECCENTRICITY": 0.00014141,
    "INCLINATION": 97.285,
    "RA_OF_ASC_NODE": 250.2959,
    "ARG_OF_PERICENTER": 59.0665,
    "MEAN_ANOMALY": 301.0742,
    "EPHEMERIS_TYPE": 0,
    "CLASSIFICATION_TYPE": "U",
    "NORAD_CAT_ID": 68387,
    "ELEMENT_SET_NO": 999,
    "REV_AT_EPOCH": 391,
    "BSTAR": 0.0016924868,
    "MEAN_MOTION_DOT": 0.00339388,
    "MEAN_MOTION_DDOT": 0
  },
  {
    "OBJECT_NAME": "STARLINK-37203",
    "OBJECT_ID": "2026-063J",
    "EPOCH": "2026-04-17T22:48:02.852064",
    "MEAN_MOTION": 15.80840824,
    "ECCENTRICITY": 0.00015454,
    "INCLINATION": 97.2853,
    "RA_OF_ASC_NODE": 249.6942,
    "ARG_OF_PERICENTER": 71.8991,
    "MEAN_ANOMALY": 288.2446,
    "EPHEMERIS_TYPE": 0,
    "CLASSIFICATION_TYPE": "U",
    "NORAD_CAT_ID": 68388,
    "ELEMENT_SET_NO": 999,
    "REV_AT_EPOCH": 382,
    "BSTAR": 0.00041392122,
    "MEAN_MOTION_DOT": 0.00079965,
    "MEAN_MOTION_DDOT": 0
  },
  {
    "OBJECT_NAME": "STARLINK-37197",
    "OBJECT_ID": "2026-063K",
    "EPOCH": "2026-04-17T22:00:39.091968",
    "MEAN_MOTION": 15.75213715,
    "ECCENTRICITY": 0.00014407,
    "INCLINATION": 97.2846,
    "RA_OF_ASC_NODE": 249.5852,
    "ARG_OF_PERICENTER": 90.2664,
    "MEAN_ANOMALY": 269.8766,
    "EPHEMERIS_TYPE": 0,
    "CLASSIFICATION_TYPE": "U",
    "NORAD_CAT_ID": 68389,
    "ELEMENT_SET_NO": 999,
    "REV_AT_EPOCH": 381,
    "BSTAR": 0.00063403502,
    "MEAN_MOTION_DOT": 0.00095604,
    "MEAN_MOTION_DDOT": 0
  },
  {
    "OBJECT_NAME": "STARLINK-37193",
    "OBJECT_ID": "2026-063L",
    "EPOCH": "2026-04-20T00:00:02.998944",
    "MEAN_MOTION": 15.75156478,
    "ECCENTRICITY": 0.0001896,
    "INCLINATION": 97.2866,
    "RA_OF_ASC_NODE": 252.0576,
    "ARG_OF_PERICENTER": 89.8407,
    "MEAN_ANOMALY": 147.7421,
    "EPHEMERIS_TYPE": 0,
    "CLASSIFICATION_TYPE": "U",
    "NORAD_CAT_ID": 68390,
    "ELEMENT_SET_NO": 999,
    "REV_AT_EPOCH": 343,
    "BSTAR": 0.0004125,
    "MEAN_MOTION_DOT": 0.00061757,
    "MEAN_MOTION_DDOT": 0
  }
]