SUPERVIEW NEO-2 OBJECT A
1 68377U 26062A   26110.14210196  .00001961  00000+0  94982-4 0  9993
2 68377  97.4407 118.2769 0001638  81.9117 278.2304 15.19719041  3831
SUPERVIEW NEO-2 OBJECT B
1 68378U 26062B   26108.29848146  .00001805  00000+0  87683-4 0  9996
2 68378  97.4403 116.4568 0001721  86.6460 273.4972 15.19725530  3558
STARLINK-36296
1 68380U 26063A   26109.00002315 -.00127916  00000+0 -86934-3 0  9991
2 68380  97.2859 250.9333 0001227  92.7806  46.0139 15.75197508  2133
STARLINK-37111
1 68381U 26063B   26110.00003471  .00030589  00000+0  20537-3 0  9992
2 68381  97.2866 251.8160 0001263  79.0667 306.5727 15.75173247  5104
STARLINK-36946
1 68382U 26063C   26107.95454174  .00160717  00000+0  82248-3 0  9997
2 68382  97.2850 249.6875 0001434  75.1750 284.9677 15.80867690  3824
STARLINK-37121
1 68383U 26063D   26108.00004630 -.00165403  00000+0 -11266-2 0  9993
2 68383  97.2858 249.7065 0001263  84.1834 103.8642 15.75252071  4780
STARLINK-37137
1 68384U 26063E   26107.92347156  .00108874  00000+0  72057-3 0  9990
2 68384  97.2845 249.5766 0001459  82.9330 277.2101 15.75220922  3816
STARLINK-37128
1 68385U 26063F   26107.95229098  .00169127  00000+0  86480-3 0  9991
2 68385  97.2851 249.6918 0002494  45.8986 314.2487 15.80862037  3824
STARLINK-37198
1 68386U 26063G   26107.90759214  .00095145  00000+0  63105-3 0  9992
2 68386  97.2847 249.5988 0001539  79.1313 281.0126 15.75212949  3814
STARLINK-37223
1 68387U 26063H   26108.52048604  .00339388  00000+0  16925-2 0  9993
2 68387  97.2850 250.2959 0001414  59.0665 301.0742 15.80971624  3911
STARLINK-37203
1 68388U 26063J   26107.95003301  .00079965  00000+0  41392-3 0  9994
2 68388  97.2853 249.6942 0001545  71.8991 288.2446 15.80840824  3822
STARLINK-37197
1 68389U 26063K   26107.91711912  .00095604  00000+0  63404-3 0  9991
2 68389  97.2846 249.5852 0001440  90.2664 269.8766 15.75213715  3816
STARLINK-37193
1 68390U 26063L   26110.00003471  .00061757  00000+0  41250-3 0  9998
2 68390  97.2866 252.0576 0001896  89.8407 147.7421 15.75156478  3438
CZ-2D R/B
1 68379U 26062C   26110.21993503  .00007806  00000+0  24949-3 0  9992
2 68379  97.4972 118.7795 0050444 332.5136  27.3438 15.31476756  3871
